[{"OBJECT_NAME":"YAOGAN-30 05C","OBJECT_ID":"2018-011D","EPOCH":"2026-03-09T22:46:23.359872","MEAN_MOTION":15.02099637,"ECCENTRICITY":0.00031952,"INCLINATION":34.998,"RA_OF_ASC_NODE":35.5831,"ARG_OF_PERICENTER":272.2506,"MEAN_ANOMALY":87.7836,"EPHEMERIS_TYPE":0,"CLASSIFICATION_TYPE":"U","NORAD_CAT_ID":43172,"ELEMENT_SET_NO":999,"REV_AT_EPOCH":44315,"BSTAR":0.00032814398,"MEAN_MOTION_DOT":4.373e-5,"MEAN_MOTION_DDOT":0},{"OBJECT_NAME":"STARLINK-6335","OBJECT_ID":"2023-065AA","EPOCH":"2026-03-09T10:45:54.897984","MEAN_MOTION":15.0253628,"ECCENTRICITY":0.00012012,"INCLINATION":43.0007,"RA_OF_ASC_NODE":211.1962,"ARG_OF_PERICENTER":265.9221,"MEAN_ANOMALY":94.1484,"EPHEMERIS_TYPE":0,"CLASSIFICATION_TYPE":"U","NORAD_CAT_ID":56527,"ELEMENT_SET_NO":999,"REV_AT_EPOCH":15659,"BSTAR":2.1691602e-5,"MEAN_MOTION_DOT":8.9e-7,"MEAN_MOTION_DDOT":0}]
